ONEWEB-0589             
1 54655U 22166P   25167.65867674  .00000189  00000+0  42670-3 0  9991
2 54655  87.9260 316.8952 0001033  85.8306 274.2946 13.21827522123250
ONEWEB-0590             
1 54656U 22166Q   25168.13636700 -.00000169  00000+0 -43993-3 0  9999
2 54656  87.9248 316.7815 0002013  84.1114 276.0249 13.21825444123765
ONEWEB-0591             
1 54657U 22166R   25167.69495555  .00000072  00000+0  14299-3 0  9999
2 54657  87.9258 316.8883 0001727  94.1192 266.0139 13.21826966123274
ONEWEB-0592             
1 54658U 22166S   25168.15228850 -.00000021  00000+0 -82602-4 0  9994
2 54658  87.9256 316.7494 0001747  92.5907 267.5427 13.21826402123684
ONEWEB-0593             
1 54659U 22166T   25167.64606468  .00000103  00000+0  21756-3 0  9994
2 54659  87.9259 316.8894 0001661  94.4175 265.7149 13.21826931123257
ONEWEB-0594             
1 54660U 22166U   25168.11916251 -.00003439  00000+0 -83583-2 0  9995
2 54660  87.9263 316.8078 0001720 102.8459 257.2867 13.21843746123798
ONEWEB-0595             
1 54661U 22166V   25167.64290982  .00000091  00000+0  18835-3 0  9997
2 54661  87.9259 316.8811 0002056  96.0565 264.0804 13.21826755123242
ONEWEB-0596             
1 54662U 22166W   25167.38901758  .00000007  00000+0 -15303-4 0  9995
2 54662  87.9261 316.9440 0001889  92.9071 267.2279 13.21826600123212
ONEWEB-0597             
1 54663U 22166X   25167.67287750 -.00001120  00000+0 -27443-2 0  9991
2 54663  87.9262 316.8905 0001606  98.3856 261.7460 13.21815117123253
ONEWEB-0600             
1 54664U 22166Y   25168.10970272 -.00000016  00000+0 -70384-4 0  9996
2 54664  87.9243 316.8072 0001746 100.6187 259.5143 13.21827044123757
ONEWEB-0601             
1 54665U 22166Z   25167.64763191  .00000151  00000+0  33322-3 0  9993
2 54665  87.9263 316.9067 0001512  90.9355 269.1952 13.21827423123413
ONEWEB-0602             
1 54666U 22166AA  25167.68864970  .00000006  00000+0 -17521-4 0  9999
2 54666  87.9264 316.8988 0001594 100.3999 259.7314 13.21826694123265
ONEWEB-0603             
1 54667U 22166AB  25167.39059365  .00000011  00000+0 -43642-5 0  9992
2 54667  87.9237 316.9041 0001544  95.1711 264.9599 13.21825141123152
ONEWEB-0604             
1 54668U 22166AC  25167.68075117  .00000121  00000+0  26228-3 0  9998
2 54668  87.9259 316.8615 0001634 100.6019 259.5299 13.21826314123156
ONEWEB-0605             
1 54669U 22166AD  25167.67445193  .00000148  00000+0  32622-3 0  9997
2 54669  87.9258 316.8935 0001463  76.1548 283.9749 13.21826185123220
ONEWEB-0606             
1 54670U 22166AE  25167.69652374  .00000033  00000+0  47640-4 0  9992
2 54670  87.9262 316.8995 0002048  97.5453 262.5913 13.21826849123284
ONEWEB-0607             
1 54671U 22166AF  25167.66340239  .00000118  00000+0  25333-3 0  9992
2 54671  87.9260 316.8718 0001672  97.0088 263.1236 13.21826483123253
ONEWEB-0608             
1 54672U 22166AG  25167.36693706  .00000091  00000+0  18810-3 0  9992
2 54672  87.9242 316.9221 0001321  89.5993 270.5292 13.21825966123222
ONEWEB-0610             
1 54673U 22166AH  25168.10496340 -.00000087  00000+0 -24294-3 0  9991
2 54673  87.9260 316.8034 0001471  88.7970 271.3333 13.21827200123695
ONEWEB-0611             
1 54674U 22166AJ  25167.64448330  .00000082  00000+0  16633-3 0  9997
2 54674  87.9259 316.8921 0002085 100.5226 259.6143 13.21826715123157
ONEWEB-0612             
1 54675U 22166AK  25167.65710762  .00000093  00000+0  19256-3 0  9996
2 54675  87.9256 316.8673 0001640  94.5072 265.6249 13.21826882123144
ONEWEB-0615             
1 54676U 22166AL  25168.16804701  .00000011  00000+0 -38914-5 0  9996
2 54676  87.9260 316.7915 0001859  97.7332 262.4013 13.21825383123693
ONEWEB-0655             
1 54677U 22166AM  25167.68706595  .00000045  00000+0  77248-4 0  9993
2 54677  87.9261 316.8916 0001633 106.5022 253.6291 13.21823535123150
ONEWEB-0659             
1 54678U 22166AN  25167.70441577  .00000026  00000+0  31078-4 0  9993
2 54678  87.9258 316.8896 0001996  95.0302 265.1060 13.21826990123249
ONEWEB-0685             
1 54679U 22166AP  25167.70599114 -.00000057  00000+0 -16892-3 0  9997
2 54679  87.9260 316.8838 0001600 101.1953 258.9360 13.21826151123132
ONEWEB-0712             
1 54680U 22166AQ  25168.12261072  .00000160  00000+0  38362-3 0  9994
2 54680  87.9040 301.5254 0001828 117.6579 242.4737 13.16593092124485
ONEWEB-0714             
1 54681U 22166AR  25168.16647034 -.00000021  00000+0 -82549-4 0  9990
2 54681  87.9261 316.7842 0001645 100.6366 259.4953 13.21823980123783
ONEWEB-0532             
1 55140U 23004A   25167.47662340  .00000096  00000+0  21533-3 0  9998
2 55140  87.9067  78.6682 0002039  65.3173 294.8171 13.17650215119420
ONEWEB-0533             
1 55141U 23004B   25168.12893679 -.00000368  00000+0 -10574-2 0  9999
2 55141  87.8889  63.2662 0001653  78.9727 281.1588 13.12443972120176
ONEWEB-0541             
1 55142U 23004C   25168.17855004  .00000126  00000+0  32079-3 0  9990
2 55142  87.8841  93.8038 0002006  77.7666 282.3686 13.11415645118111
ONEWEB-0543             
1 55143U 23004D   25167.89478537  .00000070  00000+0  14463-3 0  9996
2 55143  87.9132  48.1157 0001724  90.6639 269.4691 13.18685807121551
ONEWEB-0544             
1 55144U 23004E   25167.43320731  .00000030  00000+0  43716-4 0  9999
2 55144  87.9133  48.1972 0001992  86.7861 273.3499 13.18686128121498
ONEWEB-0560             
1 55145U 23004F   25167.42688429  .00000003  00000+0 -26178-4 0  9994
2 55145  87.9141  48.1712 0002038  87.6094 272.5271 13.18684726121503
ONEWEB-0565             
1 55146U 23004G   25168.10344592 -.00000020  00000+0 -82646-4 0  9993
2 55146  87.9133  48.0964 0002364  77.6771 282.4625 13.18688110121588
ONEWEB-0567             
1 55147U 23004H   25167.94537017 -.00000010  00000+0 -58159-4 0  9992
2 55147  87.9135  48.0838 0002267  83.5202 276.6188 13.18684986121562
ONEWEB-0569             
1 55148U 23004J   25168.11744071 -.00000390  00000+0 -11043-2 0  9993
2 55148  87.8969  32.7484 0002703  95.4872 264.6565 13.13470042122258
ONEWEB-0570             
1 55149U 23004K   25168.16036016  .00000069  00000+0  14324-3 0  9999
2 55149  87.9134  48.0437 0002147  63.9832 296.1521 13.18687721121586
ONEWEB-0571             
1 55150U 23004L   25168.15405476 -.00000018  00000+0 -78639-4 0  9996
2 55150  87.9134  48.0522 0003143  82.7898 277.3591 13.18686559121598
ONEWEB-0572             
1 55151U 23004M   25168.19039579  .00000064  00000+0  13200-3 0  9999
2 55151  87.9068  78.5332 0002111  74.7538 285.3826 13.17646308119413
ONEWEB-0573             
1 55152U 23004N   25167.92008244  .00000088  00000+0  19132-3 0  9991
2 55152  87.9133  48.1057 0002693  72.4061 287.7365 13.18687432121551
ONEWEB-0588             
1 55153U 23004P   25167.91375170  .00000112  00000+0  25106-3 0  9992
2 55153  87.9133  48.0901 0002129  69.9701 290.1660 13.18688228121555
ONEWEB-0598             
1 55154U 23004Q   25167.31724905  .00000628  00000+0  17357-2 0  9991
2 55154  87.8842  94.0121 0002618  84.3728 275.7698 13.11416492117954
ONEWEB-0599             
1 55155U 23004R   25167.31631419  .00000093  00000+0  20612-3 0  9994
2 55155  87.9076  78.7120 0002043  83.0218 277.1145 13.17648636119302
ONEWEB-0614             
1 55156U 23004S   25167.54104726  .00000397  00000+0  10832-2 0  9995
2 55156  87.8843  93.9764 0001926  68.0981 292.0351 13.11418346117913
ONEWEB-0616             
1 55157U 23004T   25167.51038248  .00000102  00000+0  22870-3 0  9998
2 55157  87.9070  78.6655 0001864 109.9370 250.1962 13.17651095119544
ONEWEB-0617             
1 55158U 23004U   25167.52917090 -.00000230  00000+0 -68464-3 0  9994
2 55158  87.8841  93.9595 0002149  69.0651 291.0707 13.11417903117943
ONEWEB-0618             
1 55159U 23004V   25168.25002315  .00046150  00000+0  92247-2 0  9995
2 55159  86.9085 322.8475 0014584 171.4263  41.4044 14.61561160127570
ONEWEB-0619             
1 55160U 23004W   25167.46649055  .00000093  00000+0  20692-3 0  9999
2 55160  87.9071  78.6515 0001446  72.0550 288.0739 13.17651473119430
ONEWEB-0620             
1 55161U 23004X   25167.52407992 -.00000632  00000+0 -18191-2 0  9990
2 55161  87.8842  93.9805 0002395  71.9446 288.1942 13.11418456117907
ONEWEB-0621             
1 55162U 23004Y   25167.55122647  .00000368  00000+0  10017-2 0  9998
2 55162  87.8838  93.9324 0001810  74.2239 285.9089 13.11417432117917
ONEWEB-0622             
1 55163U 23004Z   25167.55631212  .00000556  00000+0  15333-2 0  9997
2 55163  87.8838  93.9544 0002271  58.6250 301.5100 13.11416096117883
ONEWEB-0623             
1 55164U 23004AA  25168.14485781  .00000251  00000+0  61224-3 0  9995
2 55164  87.9075  78.5716 0001672  51.1521 308.9759 13.17652297119515
ONEWEB-0624             
1 55165U 23004AB  25167.46744495  .00000465  00000+0  12478-2 0  9993
2 55165  87.8889  63.3991 0001849  75.7621 284.3713 13.12940691120088
ONEWEB-0625             
1 55166U 23004AC  25168.13472301 -.00000016  00000+0 -75507-4 0  9991
2 55166  87.9070  78.5718 0001863  82.7388 277.3955 13.17651846119502
ONEWEB-0626             
1 55167U 23004AD  25167.51711997  .00000110  00000+0  25136-3 0  9995
2 55167  87.9070  78.6927 0002512  81.8017 278.3399 13.17650950119426
ONEWEB-0627             
1 55168U 23004AE  25167.50530536  .00000129  00000+0  29806-3 0  9991
2 55168  87.9069  78.6980 0001985  60.5103 299.6226 13.17648572119429
ONEWEB-0628             
1 55169U 23004AF  25167.46564628  .00000457  00000+0  12357-2 0  9992
2 55169  87.8887  63.3832 0001627  56.5700 303.5584 13.12442388120061
ONEWEB-0629             
1 55170U 23004AG  25167.25302799  .00000102  00000+0  22927-3 0  9992
2 55170  87.9084  78.7326 0001577  75.9673 284.1634 13.17649879119392
ONEWEB-0631             
1 55171U 23004AH  25167.90742858  .00000071  00000+0  14848-3 0  9997
2 55171  87.9147  48.0199 0002318  72.6720 287.4666 13.18688686121532
